[{"OBJECT_NAME":"STARLINK-1222","OBJECT_ID":"2020-012BC","EPOCH":"2026-03-09T22:38:25.073664","MEAN_MOTION":15.49506736,"ECCENTRICITY":0.00039794,"INCLINATION":53.0573,"RA_OF_ASC_NODE":341.5954,"ARG_OF_PERICENTER":86.864,"MEAN_ANOMALY":273.2823,"EPHEMERIS_TYPE":0,"CLASSIFICATION_TYPE":"U","NORAD_CAT_ID":45228,"ELEMENT_SET_NO":999,"REV_AT_EPOCH":33566,"BSTAR":0.00049812662,"MEAN_MOTION_DOT":0.00027553,"MEAN_MOTION_DDOT":0},{"OBJECT_NAME":"FLOCK 4Q-33","OBJECT_ID":"2023-174BE","EPOCH":"2026-03-09T17:24:33.346080","MEAN_MOTION":15.51260129,"ECCENTRICITY":0.00075156,"INCLINATION":97.3868,"RA_OF_ASC_NODE":157.6165,"ARG_OF_PERICENTER":134.5918,"MEAN_ANOMALY":225.5948,"EPHEMERIS_TYPE":0,"CLASSIFICATION_TYPE":"U","NORAD_CAT_ID":58308,"ELEMENT_SET_NO":999,"REV_AT_EPOCH":13038,"BSTAR":0.00064149158,"MEAN_MOTION_DOT":0.00037655,"MEAN_MOTION_DDOT":0}]
